NORAD_CAT_ID,OBJECT_NAME,OBJECT_TYPE,EPOCH,MEAN_MOTION,ECCENTRICITY,INCLINATION,RA_OF_ASC_NODE,ARG_OF_PERICENTER,MEAN_ANOMALY,BSTAR,MEAN_MOTION_DOT,MEAN_MOTION_DDOT,TLE_LINE0,TLE_LINE1,TLE_LINE2,SEMIMAJOR_AXIS,PERIOD,APOGEE,PERIGEE,DECAYED
56813.0,STARLINK-6056,PAYLOAD,2024-04-27 19:09:46,14.98337399,0.0002906,70.0002,261.0476,267.0844,92.9982,0.00015489,1.756e-05,0.0,0 STARLINK-6056,1 56813U 23078AY  24118.79845529  .00001756  00000-0  15489-3 0  9997,2 56813  70.0002 261.0476 0002906 267.0844  92.9982 14.98337399 50952,6950.17,96.107,574.055,570.015,0.0
56813.0,STARLINK-6056,PAYLOAD,2024-04-28 03:10:28,14.98322482,0.0002424,70.002,260.2046,274.9242,85.164,-1.8755e-05,-3.17e-06,0.0,0 STARLINK-6056,1 56813U 23078AY  24119.13227092 -.00000317  00000-0 -18755-4 0  9999,2 56813  70.0020 260.2046 0002424 274.9242  85.1640 14.98322482 51009,6950.216,96.107,573.766,570.396,0.0
56813.0,STARLINK-6056,PAYLOAD,2024-04-28 14:23:25,14.98319223,0.0002583,70.0008,259.0268,265.7706,94.3158,-9.5231e-05,-1.229e-05,0.0,0 STARLINK-6056,1 56813U 23078AY  24119.59959565 -.00001229  00000-0 -95231-4 0  9993,2 56813  70.0008 259.0268 0002583 265.7706  94.3158 14.98319223 50819,6950.226,96.108,573.886,570.296,0.0
56813.0,STARLINK-6056,PAYLOAD,2024-04-28 19:11:49,14.9832506,0.0002988,69.9999,258.5216,269.7639,90.3178,-0.00012599,-1.596e-05,0.0,0 STARLINK-6056,1 56813U 23078AY  24119.79987319 -.00001596  00000-0 -12599-3 0  9995,2 56813  69.9999 258.5216 0002988 269.7639  90.3178 14.98325060 50847,6950.208,96.107,574.15,569.996,0.0
56813.0,STARLINK-6056,PAYLOAD,2024-04-29 12:49:17,14.98331823,0.000299,69.9997,256.67,269.5908,90.4909,3.8694e-05,3.69e-06,0.0,0 STARLINK-6056,1 56813U 23078AY  24120.53422479  .00000369  00000-0  38694-4 0  9990,2 56813  69.9997 256.6700 0002990 269.5908  90.4909 14.98331823 51211,6950.187,96.107,574.13,569.974,0.0
56813.0,STARLINK-6056,PAYLOAD,2024-04-29 14:25:25,14.98331778,0.0002984,69.9999,256.5017,269.598,90.4838,3.7966e-05,3.6e-06,0.0,0 STARLINK-6056,1 56813U 23078AY  24120.60098484  .00000360  00000-0  37966-4 0  9995,2 56813  69.9999 256.5017 0002984 269.5980  90.4838 14.98331778 50967,6950.187,96.107,574.126,569.978,0.0
56813.0,STARLINK-6056,PAYLOAD,2024-04-29 19:13:48,14.98338309,0.0002994,70.0,255.9971,269.4619,90.6197,1.489e-06,-7.5e-07,0.0,0 STARLINK-6056,1 56813U 23078AY  24120.80126119 -.00000075  00000-0  14890-5 0  9990,2 56813  70.0000 255.9971 0002994 269.4619  90.6197 14.98338309 50994,6950.167,96.106,574.113,569.951,0.0
56813.0,STARLINK-6056,PAYLOAD,2024-04-30 12:51:18,14.98325036,0.0002904,70.0003,254.1454,268.6884,91.3943,0.00013283,1.492e-05,0.0,0 STARLINK-6056,1 56813U 23078AY  24121.53562617  .00001492  00000-0  13283-3 0  9994,2 56813  70.0003 254.1454 0002904 268.6884  91.3943 14.98325036 51104,6950.208,96.107,574.092,570.055,0.0
56813.0,STARLINK-6056,PAYLOAD,2024-04-30 17:39:42,14.98327853,0.0002879,70.0004,253.6408,267.7878,92.2951,0.00013709,1.543e-05,0.0,0 STARLINK-6056,1 56813U 23078AY  24121.73590456  .00001543  00000-0  13709-3 0  9998,2 56813  70.0004 253.6408 0002879 267.7878  92.2951 14.98327853 51391,6950.2,96.107,574.065,570.064,0.0
56813.0,STARLINK-6056,PAYLOAD,2024-05-01 14:29:26,14.98333354,0.0002825,70.0008,251.4526,269.5331,90.5505,-1.3634e-05,-2.56e-06,0.0,0 STARLINK-6056,1 56813U 23078AY  24122.60378449 -.00000256  00000-0 -13634-4 0  9991,2 56813  70.0008 251.4526 0002825 269.5331  90.5505 14.98333354 51262,6950.183,96.107,574.011,570.084,0.0
56813.0,STARLINK-6056,PAYLOAD,2024-05-01 19:17:50,14.98335496,0.0002796,70.0009,250.9474,271.2008,88.883,1.0832e-05,3.6e-07,0.0,0 STARLINK-6056,1 56813U 23078AY  24122.80406191  .00000036  00000-0  10832-4 0  9990,2 56813  70.0009 250.9474 0002796 271.2008  88.8830 14.98335496 51559,6950.176,96.107,573.984,570.098,0.0
56813.0,STARLINK-6056,PAYLOAD,2024-05-02 12:55:19,14.98329195,0.0002776,70.0007,249.0952,270.1802,89.9038,-2.543e-05,-3.96e-06,0.0,0 STARLINK-6056,1 56813U 23078AY  24123.53842551 -.00000396  00000-0 -25430-4 0  9996,2 56813  70.0007 249.0952 0002776 270.1802  89.9038 14.98329195 51668,6950.195,96.107,573.99,570.131,0.0
56813.0,STARLINK-6056,PAYLOAD,2024-05-02 14:31:27,14.98331092,0.0002706,70.0009,248.9275,268.5831,91.5018,-1.591e-06,-1.12e-06,0.0,0 STARLINK-6056,1 56813U 23078AY  24123.60518358 -.00000112  00000-0 -15910-5 0  9998,2 56813  70.0009 248.9275 0002706 268.5831  91.5018 14.98331092 51411,6950.19,96.107,573.935,570.174,0.0
56813.0,STARLINK-6056,PAYLOAD,2024-05-03 12:57:20,14.98330568,0.0002875,70.0002,246.5706,269.0057,91.0772,0.00023282,2.686e-05,0.0,0 STARLINK-6056,1 56813U 23078AY  24124.53981536  .00002686  00000-0  23282-3 0  9998,2 56813  70.0002 246.5706 0002875 269.0057  91.0772 14.98330568 51813,6950.191,96.107,574.054,570.058,0.0
56813.0,STARLINK-6056,PAYLOAD,2024-05-03 14:33:27,14.98341006,0.0002917,70.0002,246.4024,268.1455,91.937,5.3997e-05,5.52e-06,0.0,0 STARLINK-6056,1 56813U 23078AY  24124.60657245  .00000552  00000-0  53997-4 0  9990,2 56813  70.0002 246.4024 0002917 268.1455  91.9370 14.98341006 51568,6950.159,96.106,574.051,569.996,0.0
56813.0,STARLINK-6056,PAYLOAD,2024-05-03 17:45:43,14.98343367,0.00029,70.0003,246.0658,268.2272,91.8555,8.0048e-05,8.63e-06,0.0,0 STARLINK-6056,1 56813U 23078AY  24124.74008915  .00000863  00000-0  80048-4 0  9991,2 56813  70.0003 246.0658 0002900 268.2272  91.8555 14.98343367 51845,6950.152,96.106,574.032,570.001,0.0
56813.0,STARLINK-6056,PAYLOAD,2024-05-04 01:46:24,14.98332824,0.0002817,70.0007,245.2252,275.0399,85.0439,5.3115e-05,5.41e-06,0.0,0 STARLINK-6056,1 56813U 23078AY  24125.07389509  .00000541  00000-0  53115-4 0  9997,2 56813  70.0007 245.2252 0002817 275.0399  85.0439 14.98332824 51890,6950.184,96.107,574.007,570.091,0.0
56813.0,STARLINK-6056,PAYLOAD,2024-05-04 12:59:22,14.98321423,0.0003048,69.9996,244.0482,264.7616,95.3196,-9.7811e-05,-1.26e-05,0.0,0 STARLINK-6056,1 56813U 23078AY  24125.54122761 -.00001260  00000-0 -97811-4 0  9996,2 56813  69.9996 244.0482 0003048 264.7616  95.3196 14.98321423 51965,6950.219,96.108,574.203,569.966,0.0
56813.0,STARLINK-6056,PAYLOAD,2024-05-05 13:01:22,14.98333426,0.0002982,70.0002,241.5212,270.2321,89.8496,-4.5082e-05,-6.31e-06,0.0,0 STARLINK-6056,1 56813U 23078AY  24126.54262202 -.00000631  00000-0 -45082-4 0  9996,2 56813  70.0002 241.5212 0002982 270.2321  89.8496 14.98333426 52115,6950.182,96.107,574.12,569.975,0.0
56813.0,STARLINK-6056,PAYLOAD,2024-05-05 14:37:30,14.98335339,0.0003013,70.0001,241.353,269.2402,90.8412,-5.5842e-05,-7.59e-06,0.0,0 STARLINK-6056,1 56813U 23078AY  24126.60938097 -.00000759  00000-0 -55842-4 0  9991,2 56813  70.0001 241.3530 0003013 269.2402  90.8412 14.98335339 51865,6950.176,96.107,574.135,569.947,0.0
56813.0,STARLINK-6056,PAYLOAD,2024-05-05 16:13:38,14.98337128,0.0003002,70.0001,241.1847,269.4073,90.6742,-3.4052e-05,-4.99e-06,0.0,0 STARLINK-6056,1 56813U 23078AY  24126.67613903 -.00000499  00000-0 -34052-4 0  9995,2 56813  70.0001 241.1847 0003002 269.4073  90.6742 14.98337128 51871,6950.171,96.107,574.122,569.949,0.0
56813.0,STARLINK-6056,PAYLOAD,2024-05-06 08:17:23,14.96350833,0.0008182,70.0001,239.5061,22.9773,337.1749,-0.022819,-0.00250008,0.0,0 STARLINK-6056,1 56813U 23078AY  24127.34540629 -.00250008  00000-0 -22819-1 0  9992,2 56813  70.0001 239.5061 0008182  22.9773 337.1749 14.96350833 52236,6956.32,96.234,583.877,572.493,0.0
56813.0,STARLINK-6056,PAYLOAD,2024-05-06 22:00:01,14.98336175,0.0003087,70.0018,238.056,270.4523,299.2671,-0.0032658,-0.00038851,0.0,0 STARLINK-6056,1 56813U 23078AY  24127.91668981 -.00038851  00000-0 -32658-2 0  9990,2 56813  70.0018 238.0560 0003087 270.4523 299.2671 14.98336175 52321,6950.174,96.107,574.184,569.893,0.0
56813.0,STARLINK-6056,PAYLOAD,2024-05-07 13:05:24,14.98332344,0.0002507,70.0012,236.473,262.629,97.4584,-4.8443e-05,-6.71e-06,0.0,0 STARLINK-6056,1 56813U 23078AY  24128.54542089 -.00000671  00000-0 -48443-4 0  9990,2 56813  70.0012 236.4730 0002507 262.6290  97.4584 14.98332344 52411,6950.186,96.107,573.793,570.308,0.0
56813.0,STARLINK-6056,PAYLOAD,2024-05-07 14:41:32,14.98331296,0.0002591,70.0015,236.3051,260.821,99.2656,-0.00010757,-1.376e-05,0.0,0 STARLINK-6056,1 56813U 23078AY  24128.61218304 -.00001376  00000-0 -10757-3 0  9997,2 56813  70.0015 236.3051 0002591 260.8210  99.2656 14.98331296 52161,6950.189,96.107,573.855,570.253,0.0
56813.0,STARLINK-6056,PAYLOAD,2024-05-07 17:53:48,14.98331328,0.0002829,70.0006,235.9675,266.1565,93.9271,-2.7113e-05,-4.16e-06,0.0,0 STARLINK-6056,1 56813U 23078AY  24128.74570052 -.00000416  00000-0 -27113-4 0  9991,2 56813  70.0006 235.9675 0002829 266.1565  93.9271 14.98331328 52186,6950.189,96.107,574.02,570.088,0.0
56813.0,STARLINK-6056,PAYLOAD,2024-05-08 13:07:25,14.98329903,0.0002622,70.0007,233.9474,258.5644,101.522,-0.0001178,-1.498e-05,0.0,0 STARLINK-6056,1 56813U 23078AY  24129.54682387 -.00001498  00000-0 -11780-3 0  9998,2 56813  70.0007 233.9474 0002622 258.5644 101.5220 14.98329903 52564,6950.193,96.107,573.881,570.236,0.0
56813.0,STARLINK-6056,PAYLOAD,2024-05-08 14:43:33,14.98329958,0.0002749,70.0007,233.7791,265.3491,94.7355,-0.00010261,-1.317e-05,0.0,0 STARLINK-6056,1 56813U 23078AY  24129.61358360 -.00001317  00000-0 -10261-3 0  9990,2 56813  70.0007 233.7791 0002749 265.3491  94.7355 14.98329958 52315,6950.193,96.107,573.969,570.147,0.0
56813.0,STARLINK-6056,PAYLOAD,2024-05-08 16:19:41,14.98331606,0.0002628,70.0008,233.6109,260.3301,99.7561,-8.5575e-05,-1.114e-05,0.0,0 STARLINK-6056,1 56813U 23078AY  24129.68034203 -.00001114  00000-0 -85575-4 0  9990,2 56813  70.0008 233.6109 0002628 260.3301  99.7561 14.98331606 52327,6950.188,96.107,573.879,570.226,0.0
56813.0,STARLINK-6056,PAYLOAD,2024-05-09 13:09:25,14.9833432,0.0002986,70.0004,231.4216,264.5999,95.4819,0.00014387,1.624e-05,0.0,0 STARLINK-6056,1 56813U 23078AY  24130.54821289  .00001624  00000-0  14387-3 0  9991,2 56813  70.0004 231.4216 0002986 264.5999  95.4819 14.98334320 52712,6950.18,96.107,574.12,569.969,0.0
